*******************************************************************************
Ephemeris / WWW_USER Fri Mar  7 11:06:08 2025 Pasadena, USA      / Horizons    
*******************************************************************************
Target body name: (2018 US2)                      {source: JPL#14}
Center body name: Earth (399)                     {source: DE441}
Center-site name: Mauna Kea
*******************************************************************************
Start time      : A.D. 2019-Jan-08 04:08:00.0000 UT      
Stop  time      : A.D. 2019-Jan-08 16:48:00.0000 UT      
Step-size       : 1 minutes
*******************************************************************************
Target pole/equ : undefined
Target radii    : undefined                                                    
Center geodetic : 204.5278, 19.8260847, 4.21024   {E-lon(deg),Lat(deg),Alt(km)}
Center cylindric: 204.5278, 6006.35451, 2151.0229 {E-lon(deg),Dxy(km),Dz(km)}
Center pole/equ : ITRF93                          {East-longitude positive}
Center radii    : 6378.137, 6378.137, 6356.752 km {Equator_a, b, pole_c}       
Target primary  : Sun
Vis. interferer : MOON (R_eq= 1737.400) km        {source: DE441}
Rel. light bend : Sun                             {source: DE441}
Rel. lght bnd GM: 1.3271E+11 km^3/s^2                                          
Small-body perts: Yes                             {source: SB441-N16}
Atmos refraction: NO (AIRLESS)
RA format       : HMS
Time format     : CAL 
Calendar mode   : Mixed Julian/Gregorian
RTS-only print  : NO       
EOP file        : eop.250306.p250602                                           
EOP coverage    : DATA-BASED 1962-JAN-20 TO 2025-MAR-06. PREDICTS-> 2025-JUN-01
Units conversion: 1 au= 149597870.700 km, c= 299792.458 km/s, 1 day= 86400.0 s 
Table cut-offs 1: Elevation (-90.0deg=NO ),Airmass (>38.000=NO), Daylight (YES)
Table cut-offs 2: Solar elongation (  0.0,180.0=NO ),Local Hour Angle( 0.0=NO )
Table cut-offs 3: RA/DEC angular rate (     0.0=NO )                           
*******************************************************************************
Initial IAU76/J2000 heliocentric ecliptic osculating elements (au, days, deg.):
  EPOCH=  2458424.5 ! 2018-Nov-02.00 (TDB)         Residual RMS= .2503         
   EC= .6580934192644969   QR= 1.019516546973241   TP= 2458405.4003266119      
   OM= 225.9089147719754   W=  151.3321843630243   IN= 7.044798776353047       
  Equivalent ICRF heliocentric cartesian coordinates (au, au/d):
   X= 8.026033061055595E-01  Y= 6.200562709856074E-01  Z= 2.826199844552283E-01
  VX=-1.102263624249032E-02 VY= 1.780430100977025E-02 VZ= 4.937770740848229E-03
Asteroid physical parameters (km, seconds, rotational period in hours):        
   GM= n.a.                RAD= n.a.               ROTPER= n.a.                
   H= 24.88                G= .150                 B-V= n.a.                   
                           ALBEDO= n.a.            STYP= n.a.                  
*******************************************************************************
 Date__(UT)__HR:MN     R.A._________(ICRF)_________DEC
******************************************************
$$SOE
 2019-Jan-08 14:23     05 13 36.716854 +08 46 29.76825
 2019-Jan-08 14:24     05 13 36.738438 +08 46 30.03168
 2019-Jan-08 14:25     05 13 36.760041 +08 46 30.29512
 2019-Jan-08 14:26     05 13 36.781662 +08 46 30.55856
 2019-Jan-08 14:27     05 13 36.803302 +08 46 30.82199
 2019-Jan-08 14:28     05 13 36.824961 +08 46 31.08544
 2019-Jan-08 14:29     05 13 36.846638 +08 46 31.34888
 2019-Jan-08 14:30     05 13 36.868334 +08 46 31.61233
 2019-Jan-08 14:31     05 13 36.890049 +08 46 31.87578
 2019-Jan-08 14:32     05 13 36.911782 +08 46 32.13924
 2019-Jan-08 14:33     05 13 36.933534 +08 46 32.40270
 2019-Jan-08 14:34     05 13 36.955305 +08 46 32.66616
 2019-Jan-08 14:35     05 13 36.977095 +08 46 32.92963
 2019-Jan-08 14:36     05 13 36.998903 +08 46 33.19310
 2019-Jan-08 14:37     05 13 37.020729 +08 46 33.45657
 2019-Jan-08 14:38     05 13 37.042575 +08 46 33.72005
 2019-Jan-08 14:39     05 13 37.064439 +08 46 33.98353
 2019-Jan-08 14:40     05 13 37.086321 +08 46 34.24702
 2019-Jan-08 14:41     05 13 37.108223 +08 46 34.51052
 2019-Jan-08 14:42     05 13 37.130143 +08 46 34.77402
 2019-Jan-08 14:43     05 13 37.152081 +08 46 35.03752
 2019-Jan-08 14:44     05 13 37.174038 +08 46 35.30103
 2019-Jan-08 14:45     05 13 37.196014 +08 46 35.56455
 2019-Jan-08 14:46     05 13 37.218009 +08 46 35.82807
 2019-Jan-08 14:47     05 13 37.240022 +08 46 36.09160
 2019-Jan-08 14:48     05 13 37.262053 +08 46 36.35513
 2019-Jan-08 14:49     05 13 37.284103 +08 46 36.61867
 2019-Jan-08 14:50  s  05 13 37.306172 +08 46 36.88222
 2019-Jan-08 14:51     05 13 37.328259 +08 46 37.14577
 2019-Jan-08 14:52     05 13 37.350365 +08 46 37.40933
 2019-Jan-08 14:53     05 13 37.372490 +08 46 37.67290
 2019-Jan-08 14:54     05 13 37.394632 +08 46 37.93648
 2019-Jan-08 14:55     05 13 37.416794 +08 46 38.20006
 2019-Jan-08 14:56     05 13 37.438974 +08 46 38.46365
 2019-Jan-08 14:57     05 13 37.461172 +08 46 38.72725
 2019-Jan-08 14:58     05 13 37.483389 +08 46 38.99086
 2019-Jan-08 14:59     05 13 37.505625 +08 46 39.25447
 2019-Jan-08 15:00     05 13 37.527878 +08 46 39.51809
 2019-Jan-08 15:01     05 13 37.550151 +08 46 39.78173
 2019-Jan-08 15:02     05 13 37.572441 +08 46 40.04537
 2019-Jan-08 15:03     05 13 37.594751 +08 46 40.30902
 2019-Jan-08 15:04     05 13 37.617078 +08 46 40.57268
 2019-Jan-08 15:05     05 13 37.639424 +08 46 40.83634
 2019-Jan-08 15:06     05 13 37.661789 +08 46 41.10002
 2019-Jan-08 15:07     05 13 37.684171 +08 46 41.36371
 2019-Jan-08 15:08     05 13 37.706572 +08 46 41.62740
 2019-Jan-08 15:09     05 13 37.728992 +08 46 41.89111
 2019-Jan-08 15:10     05 13 37.751429 +08 46 42.15483
 2019-Jan-08 15:11     05 13 37.773886 +08 46 42.41856
 2019-Jan-08 15:12     05 13 37.796360 +08 46 42.68229
 2019-Jan-08 15:13     05 13 37.818852 +08 46 42.94604
 2019-Jan-08 15:14     05 13 37.841363 +08 46 43.20980
 2019-Jan-08 15:15     05 13 37.863892 +08 46 43.47357
 2019-Jan-08 15:16     05 13 37.886440 +08 46 43.73735
 2019-Jan-08 15:17     05 13 37.909005 +08 46 44.00115
 2019-Jan-08 15:18     05 13 37.931589 +08 46 44.26495
 2019-Jan-08 15:19     05 13 37.954191 +08 46 44.52877
 2019-Jan-08 15:20     05 13 37.976811 +08 46 44.79260
 2019-Jan-08 15:21     05 13 37.999449 +08 46 45.05644
 2019-Jan-08 15:22     05 13 38.022105 +08 46 45.32029
 2019-Jan-08 15:23     05 13 38.044779 +08 46 45.58415
 2019-Jan-08 15:24     05 13 38.067472 +08 46 45.84803
 2019-Jan-08 15:25     05 13 38.090182 +08 46 46.11192
 2019-Jan-08 15:26     05 13 38.112911 +08 46 46.37583
 2019-Jan-08 15:27     05 13 38.135657 +08 46 46.63974
 2019-Jan-08 15:28     05 13 38.158422 +08 46 46.90367
 2019-Jan-08 15:29     05 13 38.181204 +08 46 47.16762
 2019-Jan-08 15:30     05 13 38.204004 +08 46 47.43157
 2019-Jan-08 15:31     05 13 38.226823 +08 46 47.69554
 2019-Jan-08 15:32     05 13 38.249659 +08 46 47.95953
 2019-Jan-08 15:33     05 13 38.272513 +08 46 48.22353
 2019-Jan-08 15:34     05 13 38.295385 +08 46 48.48754
 2019-Jan-08 15:35     05 13 38.318274 +08 46 48.75157
 2019-Jan-08 15:36     05 13 38.341182 +08 46 49.01561
 2019-Jan-08 15:37     05 13 38.364107 +08 46 49.27967
 2019-Jan-08 15:38     05 13 38.387050 +08 46 49.54374
 2019-Jan-08 15:39     05 13 38.410011 +08 46 49.80783
 2019-Jan-08 15:40     05 13 38.432989 +08 46 50.07193
 2019-Jan-08 15:41 A   05 13 38.455985 +08 46 50.33605
 2019-Jan-08 15:42 A   05 13 38.478999 +08 46 50.60018
 2019-Jan-08 15:43 A   05 13 38.502030 +08 46 50.86433
 2019-Jan-08 15:44 A   05 13 38.525079 +08 46 51.12849
 2019-Jan-08 15:45 A   05 13 38.548146 +08 46 51.39268
 2019-Jan-08 15:46 A   05 13 38.571230 +08 46 51.65687
 2019-Jan-08 15:47 A   05 13 38.594331 +08 46 51.92109
 2019-Jan-08 15:48 A   05 13 38.617450 +08 46 52.18532
 2019-Jan-08 15:49 A   05 13 38.640587 +08 46 52.44957
 2019-Jan-08 15:50 A   05 13 38.663741 +08 46 52.71383
 2019-Jan-08 15:51 A   05 13 38.686912 +08 46 52.97812
 2019-Jan-08 15:52 A   05 13 38.710100 +08 46 53.24241
 2019-Jan-08 15:53 A   05 13 38.733306 +08 46 53.50673
 2019-Jan-08 15:54 A   05 13 38.756530 +08 46 53.77107
 2019-Jan-08 15:55 A   05 13 38.779770 +08 46 54.03542
 2019-Jan-08 15:56 A   05 13 38.803028 +08 46 54.29979
 2019-Jan-08 15:57 A   05 13 38.826303 +08 46 54.56418
 2019-Jan-08 15:58 A   05 13 38.849595 +08 46 54.82858
 2019-Jan-08 15:59 A   05 13 38.872905 +08 46 55.09301
 2019-Jan-08 16:00 A   05 13 38.896231 +08 46 55.35745
 2019-Jan-08 16:01 A   05 13 38.919574 +08 46 55.62192
 2019-Jan-08 16:02 A   05 13 38.942935 +08 46 55.88640
 2019-Jan-08 16:03 A   05 13 38.966313 +08 46 56.15090
 2019-Jan-08 16:04 A   05 13 38.989707 +08 46 56.41542
 2019-Jan-08 16:05 A   05 13 39.013119 +08 46 56.67996
 2019-Jan-08 16:06 A   05 13 39.036547 +08 46 56.94452
 2019-Jan-08 16:07 A   05 13 39.059992 +08 46 57.20910
 2019-Jan-08 16:08 N   05 13 39.083455 +08 46 57.47370
 2019-Jan-08 16:09 N   05 13 39.106934 +08 46 57.73832
 2019-Jan-08 16:10 N   05 13 39.130429 +08 46 58.00296
 2019-Jan-08 16:11 N   05 13 39.153942 +08 46 58.26762
 2019-Jan-08 16:12 N   05 13 39.177471 +08 46 58.53230
 2019-Jan-08 16:13 N   05 13 39.201017 +08 46 58.79700
 2019-Jan-08 16:14 N   05 13 39.224579 +08 46 59.06172
 2019-Jan-08 16:15 N   05 13 39.248158 +08 46 59.32646
 2019-Jan-08 16:16 N   05 13 39.271754 +08 46 59.59123
 2019-Jan-08 16:17 N   05 13 39.295366 +08 46 59.85601
 2019-Jan-08 16:18 N   05 13 39.318995 +08 47 00.12082
 2019-Jan-08 16:19 N   05 13 39.342640 +08 47 00.38565
 2019-Jan-08 16:20 N   05 13 39.366301 +08 47 00.65050
 2019-Jan-08 16:21 N   05 13 39.389979 +08 47 00.91537
 2019-Jan-08 16:22 N   05 13 39.413674 +08 47 01.18027
 2019-Jan-08 16:23 N   05 13 39.437384 +08 47 01.44518
 2019-Jan-08 16:24 N   05 13 39.461111 +08 47 01.71012
 2019-Jan-08 16:25 N   05 13 39.484854 +08 47 01.97509
